LANDSAT 9               
1 49260U 21088A   23284.35159862  .00001063  00000+0  24606-3 0  9998
2 49260  98.2193 352.7925 0001158  86.1735 273.9596 14.57095091108307
